{
  "type": "FeatureCollection",
  "features": [
    {
      "type": "Feature",
      "properties": {
        "norad_id": 66996,
        "name": "2025-292D",
        "group": "last-30-days",
        "lat": -34.69655716590417,
        "lon": 72.1348195976372,
        "alt_km": 556.8732725206064,
        "timestamp": "2025-12-20T07:33:49.516472+00:00",
        "meta_object_name": "2025-292D",
        "meta_object_id": "2025-292D",
        "meta_epoch": "2025-12-19T22:08:34.380096",
        "meta_mean_motion": 15.04640933,
        "meta_eccentricity": 0.00131745,
        "meta_inclination": 97.6518,
        "meta_ra_of_asc_node": 66.4053,
        "meta_arg_of_pericenter": 249.112,
        "meta_mean_anomaly": 110.8696,
        "meta_ephemeris_type": 0,
        "meta_classification_type": "U",
        "meta_norad_cat_id": 66996,
        "meta_element_set_no": 999,
        "meta_rev_at_epoch": 147,
        "meta_bstar": 0.00016472853,
        "meta_mean_motion_dot": 2.257e-05,
        "meta_mean_motion_ddot": 0,
        "tle_line1": "1 66996U 25292D   25353.92262014  .00002257  00000+0  16473-3 0  9999",
        "tle_line2": "2 66996  97.6518  66.4053 0013174 249.1120 110.8696 15.04640933  1471"
      },
      "geometry": {
        "type": "Point",
        "coordinates": [
          72.1348195976372,
          -34.69655716590417
        ]
      }
    },
    {
      "type": "Feature",
      "properties": {
        "norad_id": 66997,
        "name": "2025-292E",
        "group": "last-30-days",
        "lat": -31.77453170698413,
        "lon": 71.57600080852654,
        "alt_km": 556.7168344282563,
        "timestamp": "2025-12-20T07:33:49.516482+00:00",
        "meta_object_name": "2025-292E",
        "meta_object_id": "2025-292E",
        "meta_epoch": "2025-12-19T22:07:49.033920",
        "meta_mean_motion": 15.04726644,
        "meta_eccentricity": 0.00135457,
        "meta_inclination": 97.654,
        "meta_ra_of_asc_node": 66.4084,
        "meta_arg_of_pericenter": 249.9855,
        "meta_mean_anomaly": 109.9913,
        "meta_ephemeris_type": 0,
        "meta_classification_type": "U",
        "meta_norad_cat_id": 66997,
        "meta_element_set_no": 999,
        "meta_rev_at_epoch": 146,
        "meta_bstar": 0.00017627071,
        "meta_mean_motion_dot": 2.425e-05,
        "meta_mean_motion_ddot": 0,
        "tle_line1": "1 66997U 25292E   25353.92209530  .00002425  00000+0  17627-3 0  9993",
        "tle_line2": "2 66997  97.6540  66.4084 0013545 249.9855 109.9913 15.04726644  1460"
      },
      "geometry": {
        "type": "Point",
        "coordinates": [
          71.57600080852654,
          -31.77453170698413
        ]
      }
    },
    {
      "type": "Feature",
      "properties": {
        "norad_id": 66998,
        "name": "2025-292F",
        "group": "last-30-days",
        "lat": -26.081738762107662,
        "lon": 70.577866580181,
        "alt_km": 556.5124528448378,
        "timestamp": "2025-12-20T07:33:49.516494+00:00",
        "meta_object_name": "2025-292F",
        "meta_object_id": "2025-292F",
        "meta_epoch": "2025-12-19T22:06:20.862720",
        "meta_mean_motion": 15.04894932,
        "meta_eccentricity": 0.00146717,
        "meta_inclination": 97.6559,
        "meta_ra_of_asc_node": 66.4119,
        "meta_arg_of_pericenter": 250.9425,
        "meta_mean_anomaly": 109.0213,
        "meta_ephemeris_type": 0,
        "meta_classification_type": "U",
        "meta_norad_cat_id": 66998,
        "meta_element_set_no": 999,
        "meta_rev_at_epoch": 147,
        "meta_bstar": 0.0002385341,
        "meta_mean_motion_dot": 3.32e-05,
        "meta_mean_motion_ddot": 0,
        "tle_line1": "1 66998U 25292F   25353.92107480  .00003320  00000+0  23853-3 0  9998",
        "tle_line2": "2 66998  97.6559  66.4119 0014671 250.9425 109.0213 15.04894932  1477"
      },
      "geometry": {
        "type": "Point",
        "coordinates": [
          70.577866580181,
          -26.081738762107662
        ]
      }
    },
    {
      "type": "Feature",
      "properties": {
        "norad_id": 66999,
        "name": "2025-292G",
        "group": "last-30-days",
        "lat": -23.802135969152783,
        "lon": 70.20648449621198,
        "alt_km": 556.2126650749524,
        "timestamp": "2025-12-20T07:33:49.516504+00:00",
        "meta_object_name": "2025-292G",
        "meta_object_id": "2025-292G",
        "meta_epoch": "2025-12-19T22:05:45.469824",
        "meta_mean_motion": 15.04958778,
        "meta_eccentricity": 0.00141816,
        "meta_inclination": 97.6568,
        "meta_ra_of_asc_node": 66.4134,
        "meta_arg_of_pericenter": 253.0491,
        "meta_mean_anomaly": 106.9181,
        "meta_ephemeris_type": 0,
        "meta_classification_type": "U",
        "meta_norad_cat_id": 66999,
        "meta_element_set_no": 999,
        "meta_rev_at_epoch": 147,
        "meta_bstar": 0.00024256837,
        "meta_mean_motion_dot": 3.383e-05,
        "meta_mean_motion_ddot": 0,
        "tle_line1": "1 66999U 25292G   25353.92066516  .00003383  00000+0  24257-3 0  9991",
        "tle_line2": "2 66999  97.6568  66.4134 0014181 253.0491 106.9181 15.04958778  1477"
      },
      "geometry": {
        "type": "Point",
        "coordinates": [
          70.20648449621198,
          -23.802135969152783
        ]
      }
    },
    {
      "type": "Feature",
      "properties": {
        "norad_id": 67000,
        "name": "2025-292H",
        "group": "last-30-days",
        "lat": -23.58431625767213,
        "lon": 70.17376848731834,
        "alt_km": 556.2557601528815,
        "timestamp": "2025-12-20T07:33:49.516515+00:00",
        "meta_object_name": "2025-292H",
        "meta_object_id": "2025-292H",
        "meta_epoch": "2025-12-19T22:05:42.351648",
        "meta_mean_motion": 15.04975509,
        "meta_eccentricity": 0.00141532,
        "meta_inclination": 97.6581,
        "meta_ra_of_asc_node": 66.415,
        "meta_arg_of_pericenter": 252.6127,
        "meta_mean_anomaly": 107.3552,
        "meta_ephemeris_type": 0,
        "meta_classification_type": "U",
        "meta_norad_cat_id": 67000,
        "meta_element_set_no": 999,
        "meta_rev_at_epoch": 134,
        "meta_bstar": 0.00030664517,
        "meta_mean_motion_dot": 4.295e-05,
        "meta_mean_motion_ddot": 0,
        "tle_line1": "1 67000U 25292H   25353.92062907  .00004295  00000+0  30665-3 0  9998",
        "tle_line2": "2 67000  97.6581  66.4150 0014153 252.6127 107.3552 15.04975509  1348"
      },
      "geometry": {
        "type": "Point",
        "coordinates": [
          70.17376848731834,
          -23.58431625767213
        ]
      }
    },
    {
      "type": "Feature",
      "properties": {
        "norad_id": 67001,
        "name": "2025-292J",
        "group": "last-30-days",
        "lat": -44.816282542976175,
        "lon": 74.47547571766822,
        "alt_km": 557.4833581542289,
        "timestamp": "2025-12-20T07:33:49.516524+00:00",
        "meta_object_name": "2025-292J",
        "meta_object_id": "2025-292J",
        "meta_epoch": "2025-12-19T22:11:12.793632",
        "meta_mean_motion": 15.04374679,
        "meta_eccentricity": 0.0014377,
        "meta_inclination": 97.6561,
        "meta_ra_of_asc_node": 66.4075,
        "meta_arg_of_pericenter": 241.6916,
        "meta_mean_anomaly": 118.286,
        "meta_ephemeris_type": 0,
        "meta_classification_type": "U",
        "meta_norad_cat_id": 67001,
        "meta_element_set_no": 999,
        "meta_rev_at_epoch": 147,
        "meta_bstar": 0.00026181174,
        "meta_mean_motion_dot": 3.599e-05,
        "meta_mean_motion_ddot": 0,
        "tle_line1": "1 67001U 25292J   25353.92445363  .00003599  00000+0  26181-3 0  9994",
        "tle_line2": "2 67001  97.6561  66.4075 0014377 241.6916 118.2860 15.04374679  1473"
      },
      "geometry": {
        "type": "Point",
        "coordinates": [
          74.47547571766822,
          -44.816282542976175
        ]
      }
    },
    {
      "type": "Feature",
      "properties": {
        "norad_id": 67002,
        "name": "ZK-1A R/B",
        "group": "last-30-days",
        "lat": 13.432320487140643,
        "lon": 65.85516923512628,
        "alt_km": 280.0565539252493,
        "timestamp": "2025-12-20T07:33:49.516534+00:00",
        "meta_object_name": "ZK-1A R/B",
        "meta_object_id": "2025-292K",
        "meta_epoch": "2025-12-19T16:04:57.088416",
        "meta_mean_motion": 15.56781805,
        "meta_eccentricity": 0.02121715,
        "meta_inclination": 97.7225,
        "meta_ra_of_asc_node": 67.0138,
        "meta_arg_of_pericenter": 340.4645,
        "meta_mean_anomaly": 18.8564,
        "meta_ephemeris_type": 0,
        "meta_classification_type": "U",
        "meta_norad_cat_id": 67002,
        "meta_element_set_no": 999,
        "meta_rev_at_epoch": 147,
        "meta_bstar": 0.000625159,
        "meta_mean_motion_dot": 0.00130666,
        "meta_mean_motion_ddot": 6.714711e-06,
        "tle_line1": "1 67002U 25292K   25353.67010519  .00130666  67147-5  62516-3 0  9997",
        "tle_line2": "2 67002  97.7225  67.0138 0212171 340.4645  18.8564 15.56781805  1474"
      },
      "geometry": {
        "type": "Point",
        "coordinates": [
          65.85516923512628,
          13.432320487140643
        ]
      }
    }
  ]
}